{
    "links": {
        "self": "http://www.neowsapp.com/rest/v1/neo/3843916?api_key=iIulBulltgU6a56xZRHN4H3l9WmuAYTsLGpBGhQ2"
    },
    "id": "3843916",
    "neo_reference_id": "3843916",
    "name": "(2019 SS1)",
    "designation": "2019 SS1",
    "nasa_jpl_url": "http://ssd.jpl.nasa.gov/sbdb.cgi?sstr=3843916",
    "absolute_magnitude_h": 24.2,
    "estimated_diameter": {
        "kilometers": {
            "estimated_diameter_min": 0.0384197891,
            "estimated_diameter_max": 0.0859092601
        },
        "meters": {
            "estimated_diameter_min": 38.4197891064,
            "estimated_diameter_max": 85.9092601232
        },
        "miles": {
            "estimated_diameter_min": 0.0238729428,
            "estimated_diameter_max": 0.0533815229
        },
        "feet": {
            "estimated_diameter_min": 126.0491808919,
            "estimated_diameter_max": 281.8545369825
        }
    },
    "is_potentially_hazardous_asteroid": false,
    "close_approach_data": [
        {
            "close_approach_date": "2019-09-30",
            "close_approach_date_full": "2019-Sep-30 22:30",
            "epoch_date_close_approach": 1569882600000,
            "relative_velocity": {
                "kilometers_per_second": "7.5178067224",
                "kilometers_per_hour": "27064.1042007107",
                "miles_per_hour": "16816.5818573805"
            },
            "miss_distance": {
                "astronomical": "0.1609709982",
                "lunar": "62.6177182998",
                "kilometers": "24080918.462493834",
                "miles": "14963188.8803055492"
            },
            "orbiting_body": "Earth"
        }
    ],
    "orbital_data": {
        "orbit_id": "1",
        "orbit_determination_date": "2019-09-22 16:12:04",
        "first_observation_date": "2019-09-20",
        "last_observation_date": "2019-09-22",
        "data_arc_in_days": 2,
        "observations_used": 13,
        "orbit_uncertainty": "9",
        "minimum_orbit_intersection": ".143399",
        "jupiter_tisserand_invariant": "4.980",
        "epoch_osculation": "2458747.5",
        "eccentricity": ".149055032403812",
        "semi_major_axis": "1.292265528306167",
        "inclination": "14.58644494503915",
        "ascending_node_longitude": "182.5088288661823",
        "orbital_period": "536.5696031756955",
        "perihelion_distance": "1.099646848110162",
        "perihelion_argument": "230.9596576963388",
        "aphelion_distance": "1.484884208502172",
        "perihelion_time": "2458812.959834695109",
        "mean_anomaly": "316.08111165678",
        "mean_motion": ".6709288000463209",
        "equinox": "J2000",
        "orbit_class": {
            "orbit_class_type": "AMO",
            "orbit_class_description": "Near-Earth asteroid orbits similar to that of 1221 Amor",
            "orbit_class_range": "1.017 AU < q (perihelion) < 1.3 AU"
        }
    },
    "is_sentry_object": false
}